[{"OBJECT_NAME":"OBJECT AD","OBJECT_ID":"2023-085AD","EPOCH":"2026-03-09T21:41:29.115744","MEAN_MOTION":15.31779154,"ECCENTRICITY":0.00101154,"INCLINATION":97.4841,"RA_OF_ASC_NODE":180.2223,"ARG_OF_PERICENTER":77.5993,"MEAN_ANOMALY":282.638,"EPHEMERIS_TYPE":0,"CLASSIFICATION_TYPE":"U","NORAD_CAT_ID":57031,"ELEMENT_SET_NO":999,"REV_AT_EPOCH":15156,"BSTAR":0.00068352515,"MEAN_MOTION_DOT":0.00020961,"MEAN_MOTION_DDOT":0},{"OBJECT_NAME":"STARLINK-32463","OBJECT_ID":"2024-222S","EPOCH":"2026-03-09T12:09:37.816416","MEAN_MOTION":15.27589234,"ECCENTRICITY":0.00013166,"INCLINATION":43.0018,"RA_OF_ASC_NODE":136.9895,"ARG_OF_PERICENTER":249.159,"MEAN_ANOMALY":110.9121,"EPHEMERIS_TYPE":0,"CLASSIFICATION_TYPE":"U","NORAD_CAT_ID":62130,"ELEMENT_SET_NO":999,"REV_AT_EPOCH":7272,"BSTAR":0.0010114401,"MEAN_MOTION_DOT":0.00027683,"MEAN_MOTION_DDOT":0}]
